[{"CCSDS_OMM_VERS":"2.0","COMMENT":"GENERATED VIA SPACE-TRACK.ORG API","CREATION_DATE":"2021-05-02T06:26:10","ORIGINATOR":"18 SPCS","OBJECT_NAME":"ONEWEB-0220","OBJECT_ID":"2021-031Y","CENTER_NAME":"EARTH","REF_FRAME":"TEME","TIME_SYSTEM":"UTC","MEAN_ELEMENT_THEORY":"SGP4","EPOCH":"2021-05-02T04:00:00.999936","MEAN_MOTION":"15.42288758","ECCENTRICITY":"0.00086760","INCLINATION":"87.3987","RA_OF_ASC_NODE":"310.9516","ARG_OF_PERICENTER":"231.2672","MEAN_ANOMALY":"230.9205","EPHEMERIS_TYPE":"0","CLASSIFICATION_TYPE":"U","NORAD_CAT_ID":"48232","ELEMENT_SET_NO":"999","REV_AT_EPOCH":"95","BSTAR":"-0.00137090000000","MEAN_MOTION_DOT":"-0.00058427","MEAN_MOTION_DDOT":"0.0000000000000","SEMIMAJOR_AXIS":"6817.493","PERIOD":"93.368","APOAPSIS":"445.273","PERIAPSIS":"433.443","OBJECT_TYPE":"PAYLOAD","RCS_SIZE":"MEDIUM","COUNTRY_CODE":"UK","LAUNCH_DATE":"2021-04-25","SITE":"VOSTO","DECAY_DATE":null,"FILE":"3028952","GP_ID":"176482125","TLE_LINE0":"0 ONEWEB-0220","TLE_LINE1":"1 48232U 21031Y   21122.16667824 -.00058427  00000-0 -13709-2 0  9994","TLE_LINE2":"2 48232  87.3987 310.9516 0008676 231.2672 230.9205 15.42288758   953"},{"CCSDS_OMM_VERS":"2.0","COMMENT":"GENERATED VIA SPACE-TRACK.ORG API","CREATION_DATE":"2021-05-02T18:01:40","ORIGINATOR":"18 SPCS","OBJECT_NAME":"ONEWEB-0220","OBJECT_ID":"2021-031Y","CENTER_NAME":"EARTH","REF_FRAME":"TEME","TIME_SYSTEM":"UTC","MEAN_ELEMENT_THEORY":"SGP4","EPOCH":"2021-05-02T14:00:01.999872","MEAN_MOTION":"15.42277437","ECCENTRICITY":"0.00088570","INCLINATION":"87.3989","RA_OF_ASC_NODE":"310.8025","ARG_OF_PERICENTER":"229.1153","MEAN_ANOMALY":"24.8375","EPHEMERIS_TYPE":"0","CLASSIFICATION_TYPE":"U","NORAD_CAT_ID":"48232","ELEMENT_SET_NO":"999","REV_AT_EPOCH":"180","BSTAR":"-0.00092583000000","MEAN_MOTION_DOT":"-0.00039525","MEAN_MOTION_DDOT":"0.0000000000000","SEMIMAJOR_AXIS":"6817.527","PERIOD":"93.368","APOAPSIS":"445.430","PERIAPSIS":"433.353","OBJECT_TYPE":"PAYLOAD","RCS_SIZE":"MEDIUM","COUNTRY_CODE":"UK","LAUNCH_DATE":"2021-04-25","SITE":"VOSTO","DECAY_DATE":null,"FILE":"3029293","GP_ID":"176512701","TLE_LINE0":"0 ONEWEB-0220","TLE_LINE1":"1 48232U 21031Y   21122.58335648 -.00039525  00000-0 -92583-3 0  9992","TLE_LINE2":"2 48232  87.3989 310.8025 0008857 229.1153  24.8375 15.42277437  1805"},{"CCSDS_OMM_VERS":"2.0","COMMENT":"GENERATED VIA SPACE-TRACK.ORG API","CREATION_DATE":"2021-05-02T22:36:11","ORIGINATOR":"18 SPCS","OBJECT_NAME":"ONEWEB-0220","OBJECT_ID":"2021-031Y","CENTER_NAME":"EARTH","REF_FRAME":"TEME","TIME_SYSTEM":"UTC","MEAN_ELEMENT_THEORY":"SGP4","EPOCH":"2021-05-02T20:00:01.999872","MEAN_MOTION":"15.42227269","ECCENTRICITY":"0.00088270","INCLINATION":"87.3990","RA_OF_ASC_NODE":"310.7121","ARG_OF_PERICENTER":"228.3928","MEAN_ANOMALY":"332.6329","EPHEMERIS_TYPE":"0","CLASSIFICATION_TYPE":"U","NORAD_CAT_ID":"48232","ELEMENT_SET_NO":"999","REV_AT_EPOCH":"105","BSTAR":"0.00091592000000","MEAN_MOTION_DOT":"0.00039526","MEAN_MOTION_DDOT":"0.0000000000000","SEMIMAJOR_AXIS":"6817.674","PERIOD":"93.371","APOAPSIS":"445.557","PERIAPSIS":"433.521","OBJECT_TYPE":"PAYLOAD","RCS_SIZE":"MEDIUM","COUNTRY_CODE":"UK","LAUNCH_DATE":"2021-04-25","SITE":"VOSTO","DECAY_DATE":null,"FILE":"3029388","GP_ID":"176514882","TLE_LINE0":"0 ONEWEB-0220","TLE_LINE1":"1 48232U 21031Y   21122.83335648  .00039526  00000-0  91592-3 0  9998","TLE_LINE2":"2 48232  87.3990 310.7121 0008827 228.3928 332.6329 15.42227269  1055"},{"CCSDS_OMM_VERS":"2.0","COMMENT":"GENERATED VIA SPACE-TRACK.ORG API","CREATION_DATE":"2021-05-03T03:35:59","ORIGINATOR":"18 SPCS","OBJECT_NAME":"ONEWEB-0220","OBJECT_ID":"2021-031Y","CENTER_NAME":"EARTH","REF_FRAME":"TEME","TIME_SYSTEM":"UTC","MEAN_ELEMENT_THEORY":"SGP4","EPOCH":"2021-05-02T22:00:00.999936","MEAN_MOTION":"15.42221902","ECCENTRICITY":"0.00088100","INCLINATION":"87.3991","RA_OF_ASC_NODE":"310.6823","ARG_OF_PERICENTER":"227.8231","MEAN_ANOMALY":"75.4863","EPHEMERIS_TYPE":"0","CLASSIFICATION_TYPE":"U","NORAD_CAT_ID":"48232","ELEMENT_SET_NO":"999","REV_AT_EPOCH":"185","BSTAR":"0.00150860000000","MEAN_MOTION_DOT":"0.00065275","MEAN_MOTION_DDOT":"0.0000000000000","SEMIMAJOR_AXIS":"6817.690","PERIOD":"93.372","APOAPSIS":"445.562","PERIAPSIS":"433.549","OBJECT_TYPE":"PAYLOAD","RCS_SIZE":"MEDIUM","COUNTRY_CODE":"UK","LAUNCH_DATE":"2021-04-25","SITE":"VOSTO","DECAY_DATE":null,"FILE":"3029568","GP_ID":"176541909","TLE_LINE0":"0 ONEWEB-0220","TLE_LINE1":"1 48232U 21031Y   21122.91667824  .00065275  00000-0  15086-2 0  9994","TLE_LINE2":"2 48232  87.3991 310.6823 0008810 227.8231  75.4863 15.42221902  1858"},{"CCSDS_OMM_VERS":"2.0","COMMENT":"GENERATED VIA SPACE-TRACK.ORG API","CREATION_DATE":"2021-05-03T14:26:12","ORIGINATOR":"18 SPCS","OBJECT_NAME":"ONEWEB-0220","OBJECT_ID":"2021-031Y","CENTER_NAME":"EARTH","REF_FRAME":"TEME","TIME_SYSTEM":"UTC","MEAN_ELEMENT_THEORY":"SGP4","EPOCH":"2021-05-03T12:00:00.999648","MEAN_MOTION":"15.42254110","ECCENTRICITY":"0.00089480","INCLINATION":"87.3991","RA_OF_ASC_NODE":"310.4753","ARG_OF_PERICENTER":"224.8099","MEAN_ANOMALY":"74.9422","EPHEMERIS_TYPE":"0","CLASSIFICATION_TYPE":"U","NORAD_CAT_ID":"48232","ELEMENT_SET_NO":"999","REV_AT_EPOCH":"115","BSTAR":"0.00056157000000","MEAN_MOTION_DOT":"0.00024228","MEAN_MOTION_DDOT":"0.0000000000000","SEMIMAJOR_AXIS":"6817.595","PERIOD":"93.370","APOAPSIS":"445.561","PERIAPSIS":"433.360","OBJECT_TYPE":"PAYLOAD","RCS_SIZE":"MEDIUM","COUNTRY_CODE":"UK","LAUNCH_DATE":"2021-04-25","SITE":"VOSTO","DECAY_DATE":null,"FILE":"3029890","GP_ID":"176548005","TLE_LINE0":"0 ONEWEB-0220","TLE_LINE1":"1 48232U 21031Y   21123.50001157  .00024228  00000-0  56157-3 0  9999","TLE_LINE2":"2 48232  87.3991 310.4753 0008948 224.8099  74.9422 15.42254110  1154"},{"CCSDS_OMM_VERS":"2.0","COMMENT":"GENERATED VIA SPACE-TRACK.ORG API","CREATION_DATE":"2021-05-03T18:10:43","ORIGINATOR":"18 SPCS","OBJECT_NAME":"ONEWEB-0220","OBJECT_ID":"2021-031Y","CENTER_NAME":"EARTH","REF_FRAME":"TEME","TIME_SYSTEM":"UTC","MEAN_ELEMENT_THEORY":"SGP4","EPOCH":"2021-05-03T14:00:01.999872","MEAN_MOTION":"15.42285371","ECCENTRICITY":"0.00089470","INCLINATION":"87.3990","RA_OF_ASC_NODE":"310.4451","ARG_OF_PERICENTER":"224.7621","MEAN_ANOMALY":"177.3983","EPHEMERIS_TYPE":"0","CLASSIFICATION_TYPE":"U","NORAD_CAT_ID":"48232","ELEMENT_SET_NO":"999","REV_AT_EPOCH":"179","BSTAR":"-0.00095833000000","MEAN_MOTION_DOT":"-0.00040919","MEAN_MOTION_DDOT":"0.0000000000000","SEMIMAJOR_AXIS":"6817.503","PERIOD":"93.368","APOAPSIS":"445.468","PERIAPSIS":"433.269","OBJECT_TYPE":"PAYLOAD","RCS_SIZE":"MEDIUM","COUNTRY_CODE":"UK","LAUNCH_DATE":"2021-04-25","SITE":"VOSTO","DECAY_DATE":null,"FILE":"3030013","GP_ID":"176574038","TLE_LINE0":"0 ONEWEB-0220","TLE_LINE1":"1 48232U 21031Y   21123.58335648 -.00040919  00000-0 -95833-3 0  9993","TLE_LINE2":"2 48232  87.3990 310.4451 0008947 224.7621 177.3983 15.42285371  1790"},{"CCSDS_OMM_VERS":"2.0","COMMENT":"GENERATED VIA SPACE-TRACK.ORG API","CREATION_DATE":"2021-05-04T03:22:19","ORIGINATOR":"18 SPCS","OBJECT_NAME":"ONEWEB-0220","OBJECT_ID":"2021-031Y","CENTER_NAME":"EARTH","REF_FRAME":"TEME","TIME_SYSTEM":"UTC","MEAN_ELEMENT_THEORY":"SGP4","EPOCH":"2021-05-03T20:00:01.000224","MEAN_MOTION":"15.42234185","ECCENTRICITY":"0.00089050","INCLINATION":"87.3989","RA_OF_ASC_NODE":"310.3548","ARG_OF_PERICENTER":"223.6305","MEAN_ANOMALY":"125.5414","EPHEMERIS_TYPE":"0","CLASSIFICATION_TYPE":"U","NORAD_CAT_ID":"48232","ELEMENT_SET_NO":"999","REV_AT_EPOCH":"175","BSTAR":"0.00097932000000","MEAN_MOTION_DOT":"0.00042285","MEAN_MOTION_DDOT":"0.0000000000000","SEMIMAJOR_AXIS":"6817.654","PERIOD":"93.371","APOAPSIS":"445.590","PERIAPSIS":"433.448","OBJECT_TYPE":"PAYLOAD","RCS_SIZE":"MEDIUM","COUNTRY_CODE":"UK","LAUNCH_DATE":"2021-04-25","SITE":"VOSTO","DECAY_DATE":null,"FILE":"3030198","GP_ID":"176600480","TLE_LINE0":"0 ONEWEB-0220","TLE_LINE1":"1 48232U 21031Y   21123.83334491  .00042285  00000-0  97932-3 0  9994","TLE_LINE2":"2 48232  87.3989 310.3548 0008905 223.6305 125.5414 15.42234185  1752"},{"CCSDS_OMM_VERS":"2.0","COMMENT":"GENERATED VIA SPACE-TRACK.ORG API","CREATION_DATE":"2021-05-04T06:46:11","ORIGINATOR":"18 SPCS","OBJECT_NAME":"ONEWEB-0220","OBJECT_ID":"2021-031Y","CENTER_NAME":"EARTH","REF_FRAME":"TEME","TIME_SYSTEM":"UTC","MEAN_ELEMENT_THEORY":"SGP4","EPOCH":"2021-05-04T04:00:00.999936","MEAN_MOTION":"15.42287282","ECCENTRICITY":"0.00088860","INCLINATION":"87.3988","RA_OF_ASC_NODE":"310.2366","ARG_OF_PERICENTER":"221.6360","MEAN_ANOMALY":"176.9282","EPHEMERIS_TYPE":"0","CLASSIFICATION_TYPE":"U","NORAD_CAT_ID":"48232","ELEMENT_SET_NO":"999","REV_AT_EPOCH":"126","BSTAR":"-0.00120740000000","MEAN_MOTION_DOT":"-0.00051500","MEAN_MOTION_DDOT":"0.0000000000000","SEMIMAJOR_AXIS":"6817.498","PERIOD":"93.368","APOAPSIS":"445.421","PERIAPSIS":"433.305","OBJECT_TYPE":"PAYLOAD","RCS_SIZE":"MEDIUM","COUNTRY_CODE":"UK","LAUNCH_DATE":"2021-04-25","SITE":"VOSTO","DECAY_DATE":null,"FILE":"3030262","GP_ID":"176601517","TLE_LINE0":"0 ONEWEB-0220","TLE_LINE1":"1 48232U 21031Y   21124.16667824 -.00051500  00000-0 -12074-2 0  9995","TLE_LINE2":"2 48232  87.3988 310.2366 0008886 221.6360 176.9282 15.42287282  1260"}]